{
    "links": {
        "self": "http://www.neowsapp.com/rest/v1/neo/3685632?api_key=iIulBulltgU6a56xZRHN4H3l9WmuAYTsLGpBGhQ2"
    },
    "id": "3685632",
    "neo_reference_id": "3685632",
    "name": "(2014 RJ)",
    "designation": "2014 RJ",
    "nasa_jpl_url": "http://ssd.jpl.nasa.gov/sbdb.cgi?sstr=3685632",
    "absolute_magnitude_h": 25.4,
    "estimated_diameter": {
        "kilometers": {
            "estimated_diameter_min": 0.022108281,
            "estimated_diameter_max": 0.0494356193
        },
        "meters": {
            "estimated_diameter_min": 22.1082810359,
            "estimated_diameter_max": 49.435619262
        },
        "miles": {
            "estimated_diameter_min": 0.0137374447,
            "estimated_diameter_max": 0.0307178602
        },
        "feet": {
            "estimated_diameter_min": 72.5337327539,
            "estimated_diameter_max": 162.1903570994
        }
    },
    "is_potentially_hazardous_asteroid": false,
    "close_approach_data": [
        {
            "close_approach_date": "2014-09-03",
            "close_approach_date_full": "2014-Sep-03 17:31",
            "epoch_date_close_approach": 1409765460000,
            "relative_velocity": {
                "kilometers_per_second": "11.2419986832",
                "kilometers_per_hour": "40471.1952594854",
                "miles_per_hour": "25147.2268544286"
            },
            "miss_distance": {
                "astronomical": "0.0201927292",
                "lunar": "7.8549716588",
                "kilometers": "3020789.277806804",
                "miles": "1877031.4181257352"
            },
            "orbiting_body": "Earth"
        }
    ],
    "orbital_data": {
        "orbit_id": "4",
        "orbit_determination_date": "2017-04-06 08:38:48",
        "first_observation_date": "2014-09-02",
        "last_observation_date": "2014-09-03",
        "data_arc_in_days": 1,
        "observations_used": 21,
        "orbit_uncertainty": "8",
        "minimum_orbit_intersection": ".0190477",
        "jupiter_tisserand_invariant": "4.635",
        "epoch_osculation": "2456903.5",
        "eccentricity": ".2713615545647857",
        "semi_major_axis": "1.409584345510435",
        "inclination": "19.5701540737042",
        "ascending_node_longitude": "161.678536386316",
        "orbital_period": "611.2727401580843",
        "perihelion_distance": "1.027077346222537",
        "perihelion_argument": "176.1467959373745",
        "aphelion_distance": "1.792091344798332",
        "perihelion_time": "2456900.964898968508",
        "mean_anomaly": "1.493010094153877",
        "mean_motion": ".5889351452297686",
        "equinox": "J2000",
        "orbit_class": {
            "orbit_class_type": "AMO",
            "orbit_class_description": "Near-Earth asteroid orbits similar to that of 1221 Amor",
            "orbit_class_range": "1.017 AU < q (perihelion) < 1.3 AU"
        }
    },
    "is_sentry_object": false
}